$$SOE
2460154.500000000, A.D. 2023-Jul-29 00:00:00.0000, -3.376360763177062E+08, -2.745439518686946E+08, 7.166753083851063E+07,
2460161.500000000, A.D. 2023-Aug-05 00:00:00.0000, -3.311067703476009E+08, -2.780844804008234E+08, 6.812851040470913E+07,
2460168.500000000, A.D. 2023-Aug-12 00:00:00.0000, -3.243858721923396E+08, -2.814640417699330E+08, 6.455006146939564E+07,
2460175.500000000, A.D. 2023-Aug-19 00:00:00.0000, -3.174727933649633E+08, -2.846767922056872E+08, 6.093336431104024E+07,
2460182.500000000, A.D. 2023-Aug-26 00:00:00.0000, -3.103669408813684E+08, -2.877166211687224E+08, 5.727966247600915E+07,
2460189.500000000, A.D. 2023-Sep-02 00:00:00.0000, -3.030677230199263E+08, -2.905771317260030E+08, 5.359026990424437E+07,
2460196.500000000, A.D. 2023-Sep-09 00:00:00.0000, -2.955745559716232E+08, -2.932516194094475E+08, 4.986657881068258E+07,
2460203.500000000, A.D. 2023-Sep-16 00:00:00.0000, -2.878868713626646E+08, -2.957330494504278E+08, 4.611006840406564E+07,
2460210.500000000, A.D. 2023-Sep-23 00:00:00.0000, -2.800041244101551E+08, -2.980140319193591E+08, 4.232231454576108E+07,
2460217.500000000, A.D. 2023-Sep-30 00:00:00.0000, -2.719258032609326E+08, -3.000867933736290E+08, 3.850500061478995E+07,
2460224.500000000, A.D. 2023-Oct-07 00:00:00.0000, -2.636514421250195E+08, -3.019431453358017E+08, 3.465992992352816E+07,
2460231.500000000, A.D. 2023-Oct-14 00:00:00.0000, -2.551806374304387E+08, -3.035744527740945E+08, 3.078903948772277E+07,
2460238.500000000, A.D. 2023-Oct-21 00:00:00.0000, -2.465130639402902E+08, -3.049716006044627E+08, 2.689441495579335E+07,
2460245.500000000, A.D. 2023-Oct-28 00:00:00.0000, -2.376484930324747E+08, -3.061249553185109E+08, 2.297830765651102E+07,
2460252.500000000, A.D. 2023-Nov-04 00:00:00.0000, -2.285868147732476E+08, -3.070243228150068E+08, 1.904315407586779E+07,
2460259.500000000, A.D. 2023-Nov-11 00:00:00.0000, -2.193280639555975E+08, -3.076589023946069E+08, 1.509159768756835E+07,
2460266.500000000, A.D. 2023-Nov-18 00:00:00.0000, -2.098724507231978E+08, -3.080172365058768E+08, 1.112651366516918E+07,
2460273.500000000, A.D. 2023-Nov-25 00:00:00.0000, -2.002203965390214E+08, -3.080871558535526E+08, 7.151036928968206E+06,
2460280.500000000, A.D. 2023-Dec-02 00:00:00.0000, -1.903725764586245E+08, -3.078557194334763E+08, 3.168594033900514E+06,
2460287.500000000, A.D. 2023-Dec-09 00:00:00.0000, -1.803299688287961E+08, -3.073091490738005E+08, -8.170605075041354E+05,
2460294.500000000, A.D. 2023-Dec-16 00:00:00.0000, -1.700939135728661E+08, -3.064327579733062E+08, -4.801802778191090E+06,
2460301.500000000, A.D. 2023-Dec-23 00:00:00.0000, -1.596661804682237E+08, -3.052108720501475E+08, -8.781092020794526E+06,
2460308.500000000, A.D. 2023-Dec-30 00:00:00.0000, -1.490490508840401E+08, -3.036267425712898E+08, -1.274991601457472E+07,
2460315.500000000, A.D. 2024-Jan-06 00:00:00.0000, -1.382454173374773E+08, -3.016624519960583E+08, -1.670272813000502E+07,
2460322.500000000, A.D. 2024-Jan-13 00:00:00.0000, -1.272589008465534E+08, -2.992988145214367E+08, -2.063337512798947E+07,
2460329.500000000, A.D. 2024-Jan-20 00:00:00.0000, -1.160939887046808E+08, -2.965152681084357E+08, -2.453501395117277E+07,
2460336.500000000, A.D. 2024-Jan-27 00:00:00.0000, -1.047561994102704E+08, -2.932897574908851E+08, -2.840001537605424E+07,
2460343.500000000, A.D. 2024-Feb-03 00:00:00.0000, -9.325228093533643E+07, -2.895986097172185E+08, -3.221985235257387E+07,
2460350.500000000, A.D. 2024-Feb-10 00:00:00.0000, -8.159044909909077E+07, -2.854164037927225E+08, -3.598497050852391E+07,
2460357.500000000, A.D. 2024-Feb-17 00:00:00.0000, -6.978067451630278E+07, -2.807158366862825E+08, -3.968463786207813E+07,
2460364.500000000, A.D. 2024-Feb-24 00:00:00.0000, -5.783502857523715E+07, -2.754675894195744E+08, -4.330677035604668E+07,
2460371.500000000, A.D. 2024-Mar-02 00:00:00.0000, -4.576810114437630E+07, -2.696401991378744E+08, -4.683772942146981E+07,
2460378.500000000, A.D. 2024-Mar-09 00:00:00.0000, -3.359750521909259E+07, -2.631999461842719E+08, -5.026208745714049E+07,
2460385.500000000, A.D. 2024-Mar-16 00:00:00.0000, -2.134448645833190E+07, -2.561107693646664E+08, -5.356235696352138E+07,
2460392.500000000, A.D. 2024-Mar-23 00:00:00.0000, -9.034659316268457E+06, -2.483342279340476E+08, -5.671867914920075E+07,
2460399.500000000, A.D. 2024-Mar-30 00:00:00.0000, 3.301103173254789E+06, -2.398295387361692E+08, -5.970846854971889E+07,
2460406.500000000, A.D. 2024-Apr-06 00:00:00.0000, 1.562559881575854E+07, -2.305537324609506E+08, -6.250601260661343E+07,
2460413.500000000, A.D. 2024-Apr-13 00:00:00.0000, 2.789402015060103E+07, -2.204619855187287E+08, -6.508202881965263E+07,
2460420.500000000, A.D. 2024-Apr-20 00:00:00.0000, 4.005244631150495E+07, -2.095082046838730E+08, -6.740318810859415E+07,
2460427.500000000, A.D. 2024-Apr-27 00:00:00.0000, 5.203608532582401E+07, -1.976459742036726E+08, -6.943162427860239E+07,
2460434.500000000, A.D. 2024-May-04 00:00:00.0000, 6.376727248784417E+07, -1.848300116308548E+08, -7.112446734527123E+07,
2460441.500000000, A.D. 2024-May-11 00:00:00.0000, 7.515327205367689E+07, -1.710183198144081E+08, -7.243346561207950E+07,
2460448.500000000, A.D. 2024-May-18 00:00:00.0000, 8.608400185112849E+07, -1.561752632869750E+08, -7.330480106699167E+07,
2460455.500000000, A.D. 2024-May-25 00:00:00.0000, 9.642991774196932E+07, -1.402758227659129E+08, -7.367925700247043E+07,
2460462.500000000, A.D. 2024-Jun-01 00:00:00.0000, 1.060404704239185E+08, -1.233112628620743E+08, -7.349296419100729E+07,
2460469.500000000, A.D. 2024-Jun-08 00:00:00.0000, 1.147437839823533E+08, -1.052963368804572E+08, -7.267902199629974E+07,
2460476.500000000, A.D. 2024-Jun-15 00:00:00.0000, 1.223484771933451E+08, -8.627787970712683E+07, -7.117033585726702E+07,
2460483.500000000, A.D. 2024-Jun-22 00:00:00.0000, 1.286487666170020E+08, -6.634413376812932E+07, -6.890397943899514E+07,
2460490.500000000, A.D. 2024-Jun-29 00:00:00.0000, 1.334339792955126E+08, -4.563339577352649E+07, -6.582720073237646E+07,
2460497.500000000, A.D. 2024-Jul-06 00:00:00.0000, 1.365031071924577E+08, -2.433968556996425E+07, -6.190477078381835E+07,
2460504.500000000, A.D. 2024-Jul-13 00:00:00.0000, 1.376838137432404E+08, -2.712506122100834E+06, -5.712671989783999E+07,
2460511.500000000, A.D. 2024-Jul-20 00:00:00.0000, 1.368534184191994E+08, 1.895197124102476E+07, -5.151479880062606E+07,
2460518.500000000, A.D. 2024-Jul-27 00:00:00.0000, 1.339574867441605E+08, 4.032925505665123E+07, -4.512563827032758E+07,
2460525.500000000, A.D. 2024-Aug-03 00:00:00.0000, 1.290209045835430E+08, 6.109237094943430E+07, -3.804900425833720E+07,
2460532.500000000, A.D. 2024-Aug-10 00:00:00.0000, 1.221477081783449E+08, 8.094007678976724E+07, -3.040086292976633E+07,
2460539.500000000, A.D. 2024-Aug-17 00:00:00.0000, 1.135092816797855E+08, 9.962100892475823E+07, -2.231266503880129E+07,
2460546.500000000, A.D. 2024-Aug-24 00:00:00.0000, 1.033242054620201E+08, 1.169486837692236E+08, -1.391943118115458E+07,
2460553.500000000, A.D. 2024-Aug-31 00:00:00.0000, 9.183511102566220E+07, 1.328055931269211E+08, -5.349263015084855E+06,
2460560.500000000, A.D. 2024-Sep-07 00:00:00.0000, 7.928759531508301E+07, 1.471379963226542E+08, 3.284037483609930E+06,
2460567.500000000, A.D. 2024-Sep-14 00:00:00.0000, 6.591429811037076E+07, 1.599449091467548E+08, 1.188481937683585E+07,
2460574.500000000, A.D. 2024-Sep-21 00:00:00.0000, 5.192499831223916E+07, 1.712649341753625E+08, 2.037643982861653E+07,
2460581.500000000, A.D. 2024-Sep-28 00:00:00.0000, 3.750199762012656E+07, 1.811636211978036E+08, 2.870008132845157E+07,
2460588.500000000, A.D. 2024-Oct-05 00:00:00.0000, 2.279936850383109E+07, 1.897228224262635E+08, 3.681247021270160E+07,
2460595.500000000, A.D. 2024-Oct-12 00:00:00.0000, 7.944606822953254E+06, 1.970325192272074E+08, 4.468321059225074E+07,
2460602.500000000, A.D. 2024-Oct-19 00:00:00.0000, -6.958478931010773E+06, 2.031849916156071E+08, 5.229218088972895E+07,
2460609.500000000, A.D. 2024-Oct-26 00:00:00.0000, -2.182643923744108E+07, 2.082709292576408E+08, 5.962722253311552E+07,
2460616.500000000, A.D. 2024-Nov-02 00:00:00.0000, -3.659289481704137E+07, 2.123770215028039E+08, 6.668220476067188E+07,
2460623.500000000, A.D. 2024-Nov-09 00:00:00.0000, -5.120553674564668E+07, 2.155846080140161E+08, 7.345546594634020E+07,
2460630.500000000, A.D. 2024-Nov-16 00:00:00.0000, -6.562351742084287E+07, 2.179690536499943E+08, 7.994859145147949E+07,
2460637.500000000, A.D. 2024-Nov-23 00:00:00.0000, -7.981524915506746E+07, 2.195995959370653E+08, 8.616547367124178E+07,
2460644.500000000, A.D. 2024-Nov-30 00:00:00.0000, -9.375658300559771E+07, 2.205394858843114E+08, 9.211159950198288E+07,
2460651.500000000, A.D. 2024-Dec-07 00:00:00.0000, -1.074293213026713E+08, 2.208462995997714E+08, 9.779351639182365E+07,
2460658.500000000, A.D. 2024-Dec-14 00:00:00.0000, -1.208200135783571E+08, 2.205723402005425E+08, 1.032184363416573E+08,
2460665.500000000, A.D. 2024-Dec-21 00:00:00.0000, -1.339189895435364E+08, 2.197650761211256E+08, 1.083939452006347E+08,
2460672.500000000, A.D. 2024-Dec-28 00:00:00.0000, -1.467195839429259E+08, 2.184675800948754E+08, 1.133277911453942E+08,
2460679.500000000, A.D. 2025-Jan-04 00:00:00.0000, -1.592175139686860E+08, 2.167189517481308E+08, 1.180277325006884E+08,
2460686.500000000, A.D. 2025-Jan-11 00:00:00.0000, -1.714103806262918E+08, 2.145547147997310E+08, 1.225014301333289E+08,
2460693.500000000, A.D. 2025-Jan-18 00:00:00.0000, -1.832972701480829E+08, 2.120071828756238E+08, 1.267563730177721E+08,
2460700.500000000, A.D. 2025-Jan-25 00:00:00.0000, -1.948784351954013E+08, 2.091057918739524E+08, 1.307998283137751E+08,
2460707.500000000, A.D. 2025-Feb-01 00:00:00.0000, -2.061550396321155E+08, 2.058773993640984E+08, 1.346388094855499E+08,
2460714.500000000, A.D. 2025-Feb-08 00:00:00.0000, -2.171289540262049E+08, 2.023465527516407E+08, 1.382800576310855E+08,
2460721.500000000, A.D. 2025-Feb-15 00:00:00.0000, -2.278025916730927E+08, 1.985357285187410E+08, 1.417300324103515E+08,
$$EOE